#aV2008 10 25  0  0   .00000000      96 DD+AD WGS84 FIT  NGA
## 1502 518400.00000000   900.00000000 54764  .0000000000000
+   31     2  3  4  5  6  7  8  9 10 11 12 13 14 15 16 17 18
+         19 20 21 22 23 24 25 26 27 28 29 30 31 32  0  0  0
+          0  0  0  0  0  0  0  0  0  0  0  0  0  0  0  0  0
+          0  0  0  0  0  0  0  0  0  0  0  0  0  0  0  0  0
+          0  0  0  0  0  0  0  0  0  0  0  0  0  0  0  0  0
++         0  0  0  0  0  0  0  0  0  0  0  0  0  0  0  0  0
++         0  0  0  0  0  0  0  0  0  0  0  0  0  0  0  0  0
++         0  0  0  0  0  0  0  0  0  0  0  0  0  0  0  0  0
++         0  0  0  0  0  0  0  0  0  0  0  0  0  0  0  0  0
++         0  0  0  0  0  0  0  0  0  0  0  0  0  0  0  0  0
%c cc cc ccc ccc cccc cccc cccc cccc ccccc ccccc ccccc ccccc
%c cc cc ccc ccc cccc cccc cccc cccc ccccc ccccc ccccc ccccc
%f  0.0000000  0.000000000  0.00000000000  0.000000000000000
%f  0.0000000  0.000000000  0.00000000000  0.000000000000000
%i    0    0    0    0      0      0      0      0         0
%i    0    0    0    0      0      0      0      0         0
/*      NGA, ST. LOUIS,MO.                                  
/*   EPHEMERIS COMPUTED FROM  3 DAYS OF DATA                
/* CCCCCCCCCCCCCCCCCCCCCCCCCCCCCCCCCCCCCCCCCCCCCCCCCCCCCCCCC
/* CCCCCCCCCCCCCCCCCCCCCCCCCCCCCCCCCCCCCCCCCCCCCCCCCCCCCCCCC
*  2008 10 25 17 45   .00000000                                                 
P  2 -15590.277145  -2271.034484 -21496.183994    177.673426                    
V  2   7133.927522 -26119.208830  -2801.934509      -.026267                    
P  3  22531.450307   7445.509227  11994.661735    301.924742                    
V  3   9879.030393  12483.441861 -25333.130545       .053622                    
P  4  -9112.447171 -16473.148292 -18702.362529   -211.616408                    
V  4   8821.377048 -22085.839899  15616.170128      -.117405                    
P  5 -17672.574772  15501.064581 -12534.936845   -329.437252                    
V  5 -15609.236841   2326.325513  25610.267411      -.482619                    
P  6  21977.326171  11584.158442   9591.962677    154.116866                    
V  6   6283.121071  10684.853591 -27833.796888      -.052887                    
P  7   6762.385071 -25588.523123   1361.651621     22.555059                    
V  7   3175.939843   -880.786207 -31847.415227       .006065                    
P  8  -1488.549376 -22403.652267  13709.433396   -175.476782                    
V  8   7888.169326 -15943.447020 -25549.427127      -.015171                    
P  9 -13866.355010  18066.316224  12925.533986     21.612212                    
V  9   2334.868107 -17475.500597  25788.713828       .018815                    
P 10 -25763.116451    152.858556  -7275.917392     -6.453304                    
V 10   8306.072129  -4127.983199 -29748.113298      -.004119                    
P 11  12105.981998 -19678.336358  12624.244006     17.058671                    
V 11   2652.254116  16969.841021  23930.273146      -.008035                    
P 12 -22332.860315  11306.999122  -8667.012194   -344.495173                    
V 12 -11420.155257     -5.341221  29269.858577       .020888                    
P 13    368.464131 -18665.171113 -19006.661063    275.122423                    
V 13  16026.635020  17633.182714 -17105.421931       .010515                    
P 14  15687.329101  21264.520688   3369.009524   -202.899092                    
V 14  -4050.192656  -1913.815840  31919.343016       .048416                    
P 15 -17969.752475   1174.883244  19562.595913   -200.004765                    
V 15 -16256.203487 -18739.954033 -13804.209323      -.063319                    
P 16  23231.095782   3841.040524 -12437.269219     99.342485                    
V 16 -15024.350004   5286.207710 -26100.613828      -.022715                    
P 17 -15045.670788 -21488.391714   4770.187206     39.798021                    
V 17   5970.935078   2644.439529  30849.043025       .004062                    
P 18  -3540.205519  16127.216100  20946.096703   -119.748987                    
V 18 -25941.020659   4152.137889  -8022.236622       .039435                    
P 19  17285.743778  -1318.251632  20249.462827     35.666217                    
V 19  15335.009481  20409.376782 -11590.878664      -.000334                    
P 20  19624.325875 -13673.044615 -11623.028432    100.904825                    
V 20  14870.938163   -899.598418  26462.064535      -.010537                    
P 21  -3037.814323  25232.056838   6733.574476     45.256859                    
V 21  -6344.749746   6820.854913 -29967.703787      -.015344                    
P 22  10521.890534  13246.398470  20652.660970    210.041634                    
V 22 -25266.049680   5803.214515   9162.539606      -.001735                    
P 23   9326.486658 -11917.605160 -21861.596518    377.923648                    
V 23  19047.328105  20008.800856  -3052.434560       .012596                    
P 24 -13148.462971  22159.052998  -6862.322353    135.973843                    
V 24    422.063904  -9260.171151 -29768.810221       .029436                    
P 25   8924.712316 -24375.385863  -5692.875825    -31.284009                    
V 25    880.408036   7978.071186 -30681.159842       .329997                    
P 26 -19469.627143  -6022.100671  16820.956642      7.242987                    
V 26 -13507.757338 -17462.118997 -20751.506074       .048240                    
P 27   2616.644917 -25992.181812   5118.781798    227.811692                    
V 27   3666.109816  -4937.076514 -31196.899063       .028339                    
P 28  -8896.797667 -13443.788579  21556.546753    -23.289623                    
V 28  25770.085153  -5658.785408   6910.661721      -.002500                    
P 29  -2920.838946  17441.623787 -19724.737623    -32.977269                    
V 29 -17744.218433 -18024.626130 -13203.913142       .015640                    
P 30  -9797.509840  16558.989861 -18634.418932    104.081361                    
V 30 -22583.494687   4603.097341  16366.398583       .021973                    
P 31  10255.516806  13698.119785 -20075.486899    -34.600679                    
V 31  -8474.637677  24559.765540  12406.202989      -.022856                    
P 32  24813.809955  -7234.580178  -5199.140132    315.697065                    
V 32   7509.126080   1727.818000  31092.649914      -.007631                    
EOF
